[{"OBJECT_NAME":"STARLINK-2763","OBJECT_ID":"2021-044AJ","EPOCH":"2026-03-21T04:01:45.303744","MEAN_MOTION":15.30191705,"ECCENTRICITY":9.913e-5,"INCLINATION":53.1602,"RA_OF_ASC_NODE":50.8815,"ARG_OF_PERICENTER":90.2212,"MEAN_ANOMALY":269.8902,"EPHEMERIS_TYPE":0,"CLASSIFICATION_TYPE":"U","NORAD_CAT_ID":48670,"ELEMENT_SET_NO":999,"REV_AT_EPOCH":26571,"BSTAR":7.8413535e-5,"MEAN_MOTION_DOT":1.963e-5,"MEAN_MOTION_DDOT":0},{"OBJECT_NAME":"STARLINK-2745","OBJECT_ID":"2021-044AK","EPOCH":"2026-03-21T06:00:02.999808","MEAN_MOTION":15.16745674,"ECCENTRICITY":0.00010169,"INCLINATION":53.0985,"RA_OF_ASC_NODE":59.8353,"ARG_OF_PERICENTER":71.2954,"MEAN_ANOMALY":312.7482,"EPHEMERIS_TYPE":0,"CLASSIFICATION_TYPE":"U","NORAD_CAT_ID":48671,"ELEMENT_SET_NO":999,"REV_AT_EPOCH":578,"BSTAR":0.068815439,"MEAN_MOTION_DOT":0.01498952,"MEAN_MOTION_DDOT":0},{"OBJECT_NAME":"STARLINK-2705","OBJECT_ID":"2021-044AL","EPOCH":"2026-03-21T05:22:07.370688","MEAN_MOTION":15.30203387,"ECCENTRICITY":0.00013307,"INCLINATION":53.1607,"RA_OF_ASC_NODE":50.5842,"ARG_OF_PERICENTER":99.0683,"MEAN_ANOMALY":261.0468,"EPHEMERIS_TYPE":0,"CLASSIFICATION_TYPE":"U","NORAD_CAT_ID":48672,"ELEMENT_SET_NO":999,"REV_AT_EPOCH":26572,"BSTAR":7.991717e-5,"MEAN_MOTION_DOT":2.009e-5,"MEAN_MOTION_DDOT":0},{"OBJECT_NAME":"STARLINK-2711","OBJECT_ID":"2021-044AM","EPOCH":"2026-03-21T06:00:02.999808","MEAN_MOTION":15.16074505,"ECCENTRICITY":0.00020737,"INCLINATION":53.096,"RA_OF_ASC_NODE":59.5528,"ARG_OF_PERICENTER":93.0851,"MEAN_ANOMALY":116.8177,"EPHEMERIS_TYPE":0,"CLASSIFICATION_TYPE":"U","NORAD_CAT_ID":48673,"ELEMENT_SET_NO":999,"REV_AT_EPOCH":583,"BSTAR":0.071380695,"MEAN_MOTION_DOT":0.01528171,"MEAN_MOTION_DDOT":0},{"OBJECT_NAME":"STARLINK-2712","OBJECT_ID":"2021-044AN","EPOCH":"2026-03-21T06:00:02.999808","MEAN_MOTION":15.14649509,"ECCENTRICITY":0.00024212,"INCLINATION":53.0896,"RA_OF_ASC_NODE":59.7153,"ARG_OF_PERICENTER":79.6521,"MEAN_ANOMALY":64.7748,"EPHEMERIS_TYPE":0,"CLASSIFICATION_TYPE":"U","NORAD_CAT_ID":48674,"ELEMENT_SET_NO":999,"REV_AT_EPOCH":578,"BSTAR":0.074416206,"MEAN_MOTION_DOT":0.0153071,"MEAN_MOTION_DDOT":0},{"OBJECT_NAME":"STARLINK-2746","OBJECT_ID":"2021-044AQ","EPOCH":"2026-03-21T06:00:02.999808","MEAN_MOTION":15.13209987,"ECCENTRICITY":0.00024651,"INCLINATION":53.0832,"RA_OF_ASC_NODE":59.6375,"ARG_OF_PERICENTER":110.7025,"MEAN_ANOMALY":112.7711,"EPHEMERIS_TYPE":0,"CLASSIFICATION_TYPE":"U","NORAD_CAT_ID":48676,"ELEMENT_SET_NO":999,"REV_AT_EPOCH":583,"BSTAR":0.080015535,"MEAN_MOTION_DOT":0.01560768,"MEAN_MOTION_DDOT":0},{"OBJECT_NAME":"STARLINK-2615","OBJECT_ID":"2021-044AS","EPOCH":"2026-03-21T05:17:28.082688","MEAN_MOTION":15.30206029,"ECCENTRICITY":0.00015133,"INCLINATION":53.161,"RA_OF_ASC_NODE":50.1393,"ARG_OF_PERICENTER":87.2549,"MEAN_ANOMALY":272.8625,"EPHEMERIS_TYPE":0,"CLASSIFICATION_TYPE":"U","NORAD_CAT_ID":48678,"ELEMENT_SET_NO":999,"REV_AT_EPOCH":26573,"BSTAR":4.3605677e-5,"MEAN_MOTION_DOT":9.33e-6,"MEAN_MOTION_DDOT":0},{"OBJECT_NAME":"STARLINK-2648","OBJECT_ID":"2021-044AT","EPOCH":"2026-03-21T06:00:02.999808","MEAN_MOTION":15.16030615,"ECCENTRICITY":8.101e-5,"INCLINATION":53.0954,"RA_OF_ASC_NODE":59.5557,"ARG_OF_PERICENTER":82.1783,"MEAN_ANOMALY":246.7397,"EPHEMERIS_TYPE":0,"CLASSIFICATION_TYPE":"U","NORAD_CAT_ID":48679,"ELEMENT_SET_NO":999,"REV_AT_EPOCH":537,"BSTAR":0.071296344,"MEAN_MOTION_DOT":0.01524342,"MEAN_MOTION_DDOT":0},{"OBJECT_NAME":"STARLINK-2725","OBJECT_ID":"2021-044AV","EPOCH":"2026-03-21T03:33:18.860544","MEAN_MOTION":15.30211012,"ECCENTRICITY":0.00015642,"INCLINATION":53.1615,"RA_OF_ASC_NODE":22.0505,"ARG_OF_PERICENTER":97.8688,"MEAN_ANOMALY":262.2491,"EPHEMERIS_TYPE":0,"CLASSIFICATION_TYPE":"U","NORAD_CAT_ID":48681,"ELEMENT_SET_NO":999,"REV_AT_EPOCH":26611,"BSTAR":9.5873386e-5,"MEAN_MOTION_DOT":2.482e-5,"MEAN_MOTION_DDOT":0},{"OBJECT_NAME":"STARLINK-2743","OBJECT_ID":"2021-044AW","EPOCH":"2026-03-21T02:53:54.772512","MEAN_MOTION":15.3020448,"ECCENTRICITY":0.00014991,"INCLINATION":53.1619,"RA_OF_ASC_NODE":11.8527,"ARG_OF_PERICENTER":83.7575,"MEAN_ANOMALY":276.3597,"EPHEMERIS_TYPE":0,"CLASSIFICATION_TYPE":"U","NORAD_CAT_ID":48682,"ELEMENT_SET_NO":999,"REV_AT_EPOCH":26625,"BSTAR":-2.2160348e-5,"MEAN_MOTION_DOT":-1.016e-5,"MEAN_MOTION_DDOT":0},{"OBJECT_NAME":"STARLINK-2756","OBJECT_ID":"2021-044AX","EPOCH":"2026-03-20T23:32:12.038496","MEAN_MOTION":15.30205801,"ECCENTRICITY":0.00014393,"INCLINATION":53.1633,"RA_OF_ASC_NODE":12.6904,"ARG_OF_PERICENTER":92.6103,"MEAN_ANOMALY":267.5063,"EPHEMERIS_TYPE":0,"CLASSIFICATION_TYPE":"U","NORAD_CAT_ID":48683,"ELEMENT_SET_NO":999,"REV_AT_EPOCH":26623,"BSTAR":7.4869408e-5,"MEAN_MOTION_DOT":1.859e-5,"MEAN_MOTION_DDOT":0},{"OBJECT_NAME":"STARLINK-2741","OBJECT_ID":"2021-044AY","EPOCH":"2026-03-21T03:20:32.500320","MEAN_MOTION":15.30197341,"ECCENTRICITY":0.00010642,"INCLINATION":53.162,"RA_OF_ASC_NODE":24.7445,"ARG_OF_PERICENTER":105.7215,"MEAN_ANOMALY":254.3903,"EPHEMERIS_TYPE":0,"CLASSIFICATION_TYPE":"U","NORAD_CAT_ID":48684,"ELEMENT_SET_NO":999,"REV_AT_EPOCH":26608,"BSTAR":0.00014913335,"MEAN_MOTION_DOT":4.06e-5,"MEAN_MOTION_DDOT":0},{"OBJECT_NAME":"STARLINK-2751","OBJECT_ID":"2021-044AZ","EPOCH":"2026-03-21T01:24:23.649984","MEAN_MOTION":15.3025537,"ECCENTRICITY":0.00017394,"INCLINATION":53.161,"RA_OF_ASC_NODE":12.1311,"ARG_OF_PERICENTER":92.8012,"MEAN_ANOMALY":267.3188,"EPHEMERIS_TYPE":0,"CLASSIFICATION_TYPE":"U","NORAD_CAT_ID":48685,"ELEMENT_SET_NO":999,"REV_AT_EPOCH":26625,"BSTAR":0.00061553148,"MEAN_MOTION_DOT":0.00017946,"MEAN_MOTION_DDOT":0},{"OBJECT_NAME":"STARLINK-2629","OBJECT_ID":"2021-044BA","EPOCH":"2026-03-21T02:17:06.897408","MEAN_MOTION":15.29375603,"ECCENTRICITY":0.00013534,"INCLINATION":53.158,"RA_OF_ASC_NODE":22.1906,"ARG_OF_PERICENTER":101.4774,"MEAN_ANOMALY":258.6378,"EPHEMERIS_TYPE":0,"CLASSIFICATION_TYPE":"U","NORAD_CAT_ID":48686,"ELEMENT_SET_NO":999,"REV_AT_EPOCH":26610,"BSTAR":-1.7636466e-5,"MEAN_MOTION_DOT":-8.65e-6,"MEAN_MOTION_DDOT":0},{"OBJECT_NAME":"STARLINK-2627","OBJECT_ID":"2021-044BB","EPOCH":"2026-03-21T01:53:14.690400","MEAN_MOTION":15.30209052,"ECCENTRICITY":0.00011993,"INCLINATION":53.1623,"RA_OF_ASC_NODE":12.0683,"ARG_OF_PERICENTER":103.721,"MEAN_ANOMALY":256.3925,"EPHEMERIS_TYPE":0,"CLASSIFICATION_TYPE":"U","NORAD_CAT_ID":48687,"ELEMENT_SET_NO":999,"REV_AT_EPOCH":26624,"BSTAR":9.1301632e-5,"MEAN_MOTION_DOT":2.347e-5,"MEAN_MOTION_DDOT":0},{"OBJECT_NAME":"STARLINK-2742","OBJECT_ID":"2021-044BC","EPOCH":"2026-03-21T02:11:28.684608","MEAN_MOTION":15.30194747,"ECCENTRICITY":0.00014674,"INCLINATION":53.1609,"RA_OF_ASC_NODE":12.1003,"ARG_OF_PERICENTER":100.2637,"MEAN_ANOMALY":259.8529,"EPHEMERIS_TYPE":0,"CLASSIFICATION_TYPE":"U","NORAD_CAT_ID":48688,"ELEMENT_SET_NO":999,"REV_AT_EPOCH":26624,"BSTAR":0.00033839464,"MEAN_MOTION_DOT":9.675e-5,"MEAN_MOTION_DDOT":0}]
