STARLINK-2763           
1 48670U 21044AJ  26080.16788546  .00001963  00000+0  78414-4 0  9993
2 48670  53.1602  50.8815 0000991  90.2212 269.8902 15.30191705265715
STARLINK-2745           
1 48671U 21044AK  26080.25003472  .01498952  00000+0  68815-1 0  9992
2 48671  53.0985  59.8353 0001016  71.2954 312.7482 15.16745674  5780
STARLINK-2705           
1 48672U 21044AL  26080.22369642  .00002009  00000+0  79917-4 0  9995
2 48672  53.1607  50.5842 0001330  99.0683 261.0468 15.30203387265728
STARLINK-2711           
1 48673U 21044AM  26080.25003472  .01528171  00000+0  71381-1 0  9993
2 48673  53.0960  59.5528 0002073  93.0851 116.8177 15.16074505  5836
STARLINK-2712           
1 48674U 21044AN  26080.25003472  .01530710  00000+0  74416-1 0  9998
2 48674  53.0896  59.7153 0002421  79.6521  64.7748 15.14649509  5781
STARLINK-2746           
1 48676U 21044AQ  26080.25003472  .01560768  00000+0  80016-1 0  9999
2 48676  53.0832  59.6375 0002465 110.7025 112.7711 15.13209987  5833
STARLINK-2615           
1 48678U 21044AS  26080.22046392  .00000933  00000+0  43606-4 0  9995
2 48678  53.1610  50.1393 0001513  87.2549 272.8625 15.30206029265730
STARLINK-2648           
1 48679U 21044AT  26080.25003472  .01524342  00000+0  71296-1 0  9990
2 48679  53.0954  59.5557 0000810  82.1783 246.7397 15.16030615  5377
STARLINK-2725           
1 48681U 21044AV  26080.14813496  .00002482  00000+0  95873-4 0  9991
2 48681  53.1615  22.0505 0001564  97.8688 262.2491 15.30211012266114
STARLINK-2743           
1 48682U 21044AW  26080.12077283 -.00001016  00000+0 -22160-4 0  9999
2 48682  53.1619  11.8527 0001499  83.7575 276.3597 15.30204480266254
STARLINK-2756           
1 48683U 21044AX  26079.98069489  .00001859  00000+0  74869-4 0  9997
2 48683  53.1633  12.6904 0001439  92.6103 267.5063 15.30205801266235
STARLINK-2741           
1 48684U 21044AY  26080.13926505  .00004060  00000+0  14913-3 0  9998
2 48684  53.1620  24.7445 0001064 105.7215 254.3903 15.30197341266089
STARLINK-2751           
1 48685U 21044AZ  26080.05860706  .00017946  00000+0  61553-3 0  9999
2 48685  53.1610  12.1311 0001739  92.8012 267.3188 15.30255370266257
STARLINK-2629           
1 48686U 21044BA  26080.09521872 -.00000865  00000+0 -17636-4 0  9990
2 48686  53.1580  22.1906 0001353 101.4774 258.6378 15.29375603266107
STARLINK-2627           
1 48687U 21044BB  26080.07864225  .00002347  00000+0  91302-4 0  9998
2 48687  53.1623  12.0683 0001199 103.7210 256.3925 15.30209052266248
STARLINK-2742           
1 48688U 21044BC  26080.09130422  .00009675  00000+0  33839-3 0  9997
2 48688  53.1609  12.1003 0001467 100.2637 259.8529 15.30194747266245
